1 45060U 20006S   22365.56920289  .00006520  00000-0  45608-3 0  9991
2 45060  53.0564 112.5669 0001342  50.3263 309.7844 15.06409006161003
1 45060U 20006S   22365.70189656  .00005673  00000-0  39933-3 0  9994
2 45060  53.0550 111.9715 0001471  45.7282 314.3827 15.06407766161021
1 45060U 20006S   23001.29902042  .00001601  00000-0  12636-3 0  9996
2 45060  53.0531 109.2902 0001710  63.9291 296.1874 15.06401569161110
1 45060U 20006S   23001.56441413 -.00002369  00000-0 -14023-3 0  9992
2 45060  53.0551 108.0996 0001589  50.3355 309.7774 15.06390607161151
1 45060U 20006S   23002.55960945 -.00000064  00000-0  14624-4 0  9995
2 45060  53.0547 103.6326 0001610  48.1836 311.9290 15.06404308161307
1 45060U 20006S   23002.69230331 -.00000579  00000-0 -19983-4 0  9994
2 45060  53.0541 103.0372 0001756  49.9485 310.1658 15.06398460161328
1 45060U 20006S   23003.55482246  .00000900  00000-0  79349-4 0  9992
2 45060  53.0549  99.1649 0001636  48.6371 311.4759 15.06389065161456
1 45060U 20006S   23004.55002643  .00000411  00000-0  46499-4 0  9999
2 45060  53.0556  94.6987 0001798  45.6668 314.4468 15.06399732161603
1 45060U 20006S   23005.27982983  .00004944  00000-0  35045-3 0  9992
2 45060  53.0559  91.4222 0001913  47.3816 312.7334 15.06412936161713
1 45060U 20006S   23005.61155856  .00004846  00000-0  34385-3 0  9998
2 45060  53.0554  89.9325 0001966  47.4377 312.6778 15.06418081161768
1 45060U 20006S   23006.47407623 -.00006132  00000-0 -39320-3 0  9991
2 45060  53.0554  86.0600 0002035  47.4057 312.7104 15.06390373161896
1 45060U 20006S   23007.20389997 -.00001446  00000-0 -78206-4 0  9996
2 45060  53.0565  82.7845 0001794  44.0481 316.0650 15.06391733162005
1 45060U 20006S   23007.60198208  .00004827  00000-0  34275-3 0  9994
2 45060  53.0552  80.9976 0001836  42.9920 317.1212 15.06399041162060
1 45060U 20006S   23008.19911029  .00008365  00000-0  57980-3 0  9992
2 45060  53.0549  78.3168 0001939  47.2524 312.8628 15.06399845162157
1 45060U 20006S   23008.59718808  .00009858  00000-0  67957-3 0  9999
2 45060  53.0548  76.5297 0001992  46.3255 313.7899 15.06411619162210
1 45060U 20006S   23009.59238898  .00001263  00000-0  10370-3 0  9995
2 45060  53.0554  72.0630 0001981  33.0760 327.0353 15.06401441162362
1 45060U 20006S   23009.85777901 -.00000203  00000-0  53164-5 0  9991
2 45060  53.0540  70.8716 0002059  37.6075 322.5057 15.06397452162406
1 45060U 20006S   23010.52125859 -.00001101  00000-0 -55005-4 0  9990
2 45060  53.0564  67.8914 0002173  50.8111 309.3070 15.06389243162848
1 45060U 20006S   23011.51644765  .00001335  00000-0  10849-3 0  9995
2 45060  53.0556  63.4258 0002362  38.0313 322.0842 15.06401471162997
1 45060U 20006S   23011.84819068 -.00000069  00000-0  14316-4 0  9999
2 45060  53.0555  61.9355 0002151  39.1760 320.9384 15.06391471162706
1 45060U 20006S   23012.84339693  .00000944  00000-0  82336-4 0  9999
2 45060  53.0543  57.4655 0002357  51.7365 308.3836 15.06387247162859
1 45060U 20006S   23013.50686628 -.00000846  00000-0 -37894-4 0  9998
2 45060  53.0535  54.4864 0002105  64.5694 295.5512 15.06392129162951
1 45060U 20006S   23013.83860199 -.00000227  00000-0  37061-5 0  9990
2 45060  53.0535  52.9971 0002026  56.6399 303.4783 15.06389805163002
1 45060U 20006S   23015.49727576  .00001311  00000-0  10693-3 0  9999
2 45060  53.0533  45.5501 0002100  61.2802 298.8398 15.06394568163259
1 45060U 20006S   23015.76266221  .00001589  00000-0  12556-3 0  9991
2 45060  53.0533  44.3594 0002140  62.8195 297.3012 15.06396734163292
1 45060U 20006S   23016.35977654  .00004829  00000-0  34276-3 0  9999
2 45060  53.0529  41.6823 0002115  71.4951 288.6268 15.06415216163383
1 45060U 20006S   23016.75786205  .00000643  00000-0  62050-4 0  9995
2 45060  53.0520  39.8962 0001693  64.3937 295.7226 15.06402623163440
1 45060U 20006S   23017.48769110 -.00000588  00000-0 -20552-4 0  9993
2 45060  53.0514  36.6166 0002117  80.6711 279.4517 15.06389375163559
1 45060U 20006S   23017.75307497  .00001705  00000-0  13336-3 0  9990
2 45060  53.0537  35.4257 0002150  81.0636 279.0597 15.06398722163594
1 45060U 20006S   23018.41655809  .00001343  00000-0  10911-3 0  9991
2 45060  53.0531  32.4478 0002414  83.0423 277.0841 15.06385140163690
1 45060U 20006S   23018.74828844  .00004750  00000-0  33761-3 0  9991
2 45060  53.0531  30.9587 0001855  90.7003 269.4198 15.06396425163745
1 45060U 20006S   23019.34539768  .00012157  00000-0  83298-3 0  9992
2 45060  53.0539  28.2782 0002335  95.0316 265.0939 15.06430142163839
1 45060U 20006S   23020.40694819  .00005645  00000-0  39743-3 0  9990
2 45060  53.0536  23.5126 0002257  88.4734 271.6514 15.06415037163994
1 45060U 20006S   23025.25027564  .00006864  00000-0  47916-3 0  9990
2 45060  53.0533   1.7691 0002131  93.7160 266.4072 15.06409330164721
1 45060U 20006S   23025.64835971  .00001847  00000-0  14285-3 0  9991
2 45060  53.0540 359.9818 0002327  83.1180 277.0073 15.06399764164784
1 45060U 20006S   23026.31182791  .00002008  00000-0  15369-3 0  9995
2 45060  53.0539 356.9998 0002285  90.0332 270.0918 15.06402269164884
1 45060U 20006S   23027.10798809  .00004205  00000-0  30096-3 0  9991
2 45060  53.0542 353.4264 0002182  91.0481 269.0758 15.06407195165006
1 45060U 20006S   23027.70511346  .00001982  00000-0  15192-3 0  9995
2 45060  53.0541 350.7540 0002282  72.1225 288.0013 15.06400659165091
1 45060U 20006S   23028.30223150  .00000535  00000-0  54816-4 0  9995
2 45060  53.0545 348.0675 0002035  91.0157 269.1065 15.06403376165180
1 45060U 20006S   23028.83301237 -.00000337  00000-0 -37264-5 0  9997
2 45060  53.0543 345.6853 0002050  93.9533 266.1690 15.06397433165261
1 45060U 20006S   23029.89456537  .00001045  00000-0  89106-4 0  9994
2 45060  53.0543 340.9196 0001924  98.2590 261.8617 15.06388953165425
1 45060U 20006S   23030.29264013  .00001440  00000-0  11558-3 0  9990
2 45060  53.0542 339.1325 0001935  94.3504 265.7706 15.06400587165488
1 45060U 20006S   23031.22149026  .00002626  00000-0  19506-3 0  9998
2 45060  53.0543 334.9630 0001928  93.3808 266.7401 15.06407568165624
1 45060U 20006S   23031.81863538 -.00000155  00000-0  85283-5 0  9997
2 45060  53.0540 332.2812 0001647  95.9014 264.2163 15.06380393165713
